IRIDIUM 119             
1 42959U 17061E   25195.65637463  .00000046  00000+0  93494-5 0  9999
2 42959  86.4006 166.3204 0002455  81.5723 278.5750 14.34217787406434
IRIDIUM 107             
1 42960U 17061F   25195.95447552  .00000037  00000+0  61507-5 0  9992
2 42960  86.4008 166.2152 0002127  74.6570 285.4861 14.34217794406481
IRIDIUM 132             
1 42961U 17061G   25195.96081680  .00000150  00000+0  46615-4 0  9998
2 42961  86.4006 166.1944 0002229  84.3745 275.7705 14.34216984406482
IRIDIUM 136             
1 42962U 17061H   25195.64368916  .00000016  00000+0 -14823-5 0  9993
2 42962  86.4011 166.3318 0002277  80.3555 279.7898 14.34217581406452
IRIDIUM 139             
1 42963U 17061J   25195.65002995  .00000120  00000+0  35896-4 0  9994
2 42963  86.4009 166.3855 0002167  81.4506 278.6935 14.34217581406463
IRIDIUM 125             
1 42964U 17061K   25195.98618948  .00000019  00000+0 -26352-6 0  9999
2 42964  86.4011 166.3000 0002548  72.7249 287.4225 14.34217638406529
IRIDIUM 135             
1 43070U 17083A   25196.44869386  .00000062  00000+0  15004-4 0  9995
2 43070  86.3963 102.8090 0002186  90.0979 270.0467 14.34218106395881
IRIDIUM 138             
1 43071U 17083B   25196.19499131  .00000070  00000+0  17957-4 0  9993
2 43071  86.3953 102.5822 0002716  80.2562 279.8940 14.34218117395839
